NORAD_CAT_ID,OBJECT_NAME,OBJECT_TYPE,EPOCH,MEAN_MOTION,ECCENTRICITY,INCLINATION,RA_OF_ASC_NODE,ARG_OF_PERICENTER,MEAN_ANOMALY,BSTAR,MEAN_MOTION_DOT,MEAN_MOTION_DDOT,TLE_LINE0,TLE_LINE1,TLE_LINE2,SEMIMAJOR_AXIS,PERIOD,APOGEE,PERIGEE,DECAYED
52116.0,STARLINK-3735,PAYLOAD,2023-05-13 23:34:37,15.08843904,0.0001177,53.2172,26.1418,82.8186,277.294,0.00012464,1.697e-05,0.0,0 STARLINK-3735,1 52116U 22029AE  23133.98237501  .00001697  00000-0  12464-3 0  9990,2 52116  53.2172  26.1418 0001177  82.8186 277.2940 15.08843904 65181,6917.868,95.437,540.548,538.919,0.0
52116.0,STARLINK-3735,PAYLOAD,2023-05-14 20:14:37,15.08844175,0.0001142,53.2172,22.2766,87.6923,272.42,9.5258e-05,1.229e-05,0.0,0 STARLINK-3735,1 52116U 22029AE  23134.84349383  .00001229  00000-0  95258-4 0  9992,2 52116  53.2172  22.2766 0001142  87.6923 272.4200 15.08844175 65310,6917.868,95.437,540.523,538.943,0.0
52116.0,STARLINK-3735,PAYLOAD,2023-05-15 02:36:09,15.08854617,0.0001132,53.2175,21.0865,90.1567,269.9555,0.00024235,3.573e-05,0.0,0 STARLINK-3735,1 52116U 22029AE  23135.10844850  .00003573  00000-0  24235-3 0  9991,2 52116  53.2175  21.0865 0001132  90.1567 269.9555 15.08854617 65352,6917.836,95.437,540.484,538.918,0.0
52116.0,STARLINK-3735,PAYLOAD,2023-05-15 08:57:42,15.08846387,0.0001206,53.2182,19.8951,77.349,282.7637,0.00010521,1.387e-05,0.0,0 STARLINK-3735,1 52116U 22029AE  23135.37340764  .00001387  00000-0  10521-3 0  9999,2 52116  53.2182  19.8951 0001206  77.3490 282.7637 15.08846387 65398,6917.861,95.437,540.56,538.892,0.0
52116.0,STARLINK-3735,PAYLOAD,2023-05-15 16:54:38,15.08839058,0.0001632,53.2169,18.4112,97.0265,263.0913,4.0423e-05,3.55e-06,0.0,0 STARLINK-3735,1 52116U 22029AE  23135.70461529  .00000355  00000-0  40423-4 0  9998,2 52116  53.2169  18.4112 0001632  97.0265 263.0913 15.08839058 65441,6917.883,95.438,540.877,538.619,0.0
52116.0,STARLINK-3735,PAYLOAD,2023-05-15 23:16:11,15.08834271,0.0001269,53.2162,17.2245,93.5333,266.5805,-3.6547e-05,-8.69e-06,0.0,0 STARLINK-3735,1 52116U 22029AE  23135.96957787 -.00000869  00000-0 -36547-4 0  9996,2 52116  53.2162  17.2245 0001269  93.5333 266.5805 15.08834271 65485,6917.898,95.438,540.641,538.885,0.0
52116.0,STARLINK-3735,PAYLOAD,2023-05-16 21:31:35,15.0883774,0.0001245,53.2164,13.061,96.3614,263.752,-1.3492e-05,-5.03e-06,0.0,0 STARLINK-3735,1 52116U 22029AE  23136.89693945 -.00000503  00000-0 -13492-4 0  9991,2 52116  53.2164  13.0610 0001245  96.3614 263.7520 15.08837740 65627,6917.887,95.438,540.614,538.891,0.0
52116.0,STARLINK-3735,PAYLOAD,2023-05-17 00:42:21,15.08845416,0.0001319,53.2178,12.4664,83.1629,276.9513,-9.2494e-05,-1.76e-05,0.0,0 STARLINK-3735,1 52116U 22029AE  23137.02941603 -.00001760  00000-0 -92494-4 0  9999,2 52116  53.2178  12.4664 0001319  83.1629 276.9513 15.08845416 65645,6917.864,95.437,540.641,538.816,0.0
52116.0,STARLINK-3735,PAYLOAD,2023-05-17 21:22:22,15.08839336,0.0001261,53.2173,8.5994,95.2874,264.8262,0.00015967,2.254e-05,0.0,0 STARLINK-3735,1 52116U 22029AE  23137.89054097  .00002254  00000-0  15967-3 0  9992,2 52116  53.2173   8.5994 0001261  95.2874 264.8262 15.08839336 65779,6917.882,95.438,540.62,538.875,0.0
52116.0,STARLINK-3735,PAYLOAD,2023-05-18 00:33:08,15.08841648,0.0001224,53.2164,8.0038,87.2749,272.8384,0.00018672,2.685e-05,0.0,0 STARLINK-3735,1 52116U 22029AE  23138.02302023  .00002685  00000-0  18672-3 0  9997,2 52116  53.2164   8.0038 0001224  87.2749 272.8384 15.08841648 65799,6917.875,95.437,540.587,538.894,0.0
52116.0,STARLINK-3735,PAYLOAD,2023-05-18 14:51:37,15.0884102,0.0001269,53.2167,5.3268,83.7629,276.3507,7.5491e-05,9.14e-06,0.0,0 STARLINK-3735,1 52116U 22029AE  23138.61918160  .00000914  00000-0  75491-4 0  9993,2 52116  53.2167   5.3268 0001269  83.7629 276.3507 15.08841020 65884,6917.877,95.437,540.62,538.864,0.0
52116.0,STARLINK-3735,PAYLOAD,2023-05-19 21:03:56,15.0884621,0.0001061,53.2159,359.6787,89.0643,271.0471,0.00012493,1.701e-05,0.0,0 STARLINK-3735,1 52116U 22029AE  23139.87773735  .00001701  00000-0  12493-3 0  9996,2 52116  53.2159 359.6787 0001061  89.0643 271.0471 15.08846210 66071,6917.861,95.437,540.46,538.992,0.0
52116.0,STARLINK-3735,PAYLOAD,2023-05-20 00:14:42,15.08849388,0.0001102,53.216,359.083,90.6896,269.4222,0.00016858,2.397e-05,0.0,0 STARLINK-3735,1 52116U 22029AE  23140.01021535  .00002397  00000-0  16858-3 0  9999,2 52116  53.2160 359.0830 0001102  90.6896 269.4222 15.08849388 66096,6917.852,95.437,540.479,538.954,0.0
52116.0,STARLINK-3735,PAYLOAD,2023-05-20 17:43:57,15.08845589,0.0001243,53.2166,355.8095,103.2528,256.8603,8.9984e-05,1.145e-05,0.0,0 STARLINK-3735,1 52116U 22029AE  23140.73885612  .00001145  00000-0  89984-4 0  9993,2 52116  53.2166 355.8095 0001243 103.2528 256.8603 15.08845589 66203,6917.863,95.437,540.588,538.868,0.0
52116.0,STARLINK-3735,PAYLOAD,2023-05-20 20:54:43,15.08850217,0.0001201,53.2167,355.2148,104.5089,255.6037,5.2238e-05,5.44e-06,0.0,0 STARLINK-3735,1 52116U 22029AE  23140.87133288  .00000544  00000-0  52238-4 0  9997,2 52116  53.2167 355.2148 0001201 104.5089 255.6037 15.08850217 66221,6917.849,95.437,540.545,538.883,0.0
52116.0,STARLINK-3735,PAYLOAD,2023-05-21 00:05:29,15.08853115,0.0001133,53.2171,354.619,104.8317,255.2801,0.00016005,2.261e-05,0.0,0 STARLINK-3735,1 52116U 22029AE  23141.00381019  .00002261  00000-0  16005-3 0  9999,2 52116  53.2171 354.6190 0001133 104.8317 255.2801 15.08853115 66244,6917.84,95.437,540.489,538.922,0.0
52116.0,STARLINK-3735,PAYLOAD,2023-05-21 20:45:31,15.0883398,0.000102,53.2166,350.7545,96.9306,263.1802,-5.1534e-05,-1.108e-05,0.0,0 STARLINK-3735,1 52116U 22029AE  23141.86494296 -.00001108  00000-0 -51534-4 0  9993,2 52116  53.2166 350.7545 0001020  96.9306 263.1802 15.08833980 66374,6917.899,95.438,540.469,539.058,0.0
52116.0,STARLINK-3735,PAYLOAD,2023-05-22 06:17:49,15.08839702,0.0001049,53.2166,348.9701,96.6408,263.4704,7.0163e-05,8.29e-06,0.0,0 STARLINK-3735,1 52116U 22029AE  23142.26238162  .00000829  00000-0  70163-4 0  9992,2 52116  53.2166 348.9701 0001049  96.6408 263.4704 15.08839702 66437,6917.881,95.438,540.472,539.021,0.0
52116.0,STARLINK-3735,PAYLOAD,2023-05-22 17:25:31,15.08847279,0.000109,53.2169,346.8894,98.8475,261.264,0.00011207,1.497e-05,0.0,0 STARLINK-3735,1 52116U 22029AE  23142.72605896  .00001497  00000-0  11207-3 0  9990,2 52116  53.2169 346.8894 0001090  98.8475 261.2640 15.08847279 66505,6917.858,95.437,540.477,538.969,0.0
52116.0,STARLINK-3735,PAYLOAD,2023-05-23 02:57:50,15.08826636,0.0001074,53.2166,345.1066,90.922,269.1895,-0.00010705,-1.99e-05,0.0,0 STARLINK-3735,1 52116U 22029AE  23143.12350478 -.00001990  00000-0 -10705-3 0  9990,2 52116  53.2166 345.1066 0001074  90.9220 269.1895 15.08826636 66567,6917.921,95.438,540.529,539.043,0.0
52116.0,STARLINK-3735,PAYLOAD,2023-05-23 17:16:18,15.08843656,0.0001033,53.2166,342.4302,108.863,251.2474,0.00022724,3.331e-05,0.0,0 STARLINK-3735,1 52116U 22029AE  23143.71966325  .00003331  00000-0  22724-3 0  9992,2 52116  53.2166 342.4302 0001033 108.8630 251.2474 15.08843656 66655,6917.869,95.437,540.449,539.02,0.0
52116.0,STARLINK-3735,PAYLOAD,2023-05-23 20:27:05,15.0884294,9.78e-05,53.2166,341.836,108.112,251.9979,0.00031456,4.722e-05,0.0,0 STARLINK-3735,1 52116U 22029AE  23143.85214303  .00004722  00000-0  31456-3 0  9996,2 52116  53.2166 341.8360 0000978 108.1120 251.9979 15.08842940 66670,6917.871,95.437,540.413,539.06,0.0
52116.0,STARLINK-3735,PAYLOAD,2023-05-24 05:59:24,15.08836664,9.6e-05,53.2164,340.0517,112.3696,247.7398,0.00032402,4.872e-05,0.0,0 STARLINK-3735,1 52116U 22029AE  23144.24958547  .00004872  00000-0  32402-3 0  9993,2 52116  53.2164 340.0517 0000960 112.3696 247.7398 15.08836664 66730,6917.891,95.438,540.42,539.091,0.0
52116.0,STARLINK-3735,PAYLOAD,2023-05-24 15:31:43,15.08841742,9.52e-05,53.2163,338.2674,108.7313,251.3782,0.00054314,8.367e-05,0.0,0 STARLINK-3735,1 52116U 22029AE  23144.64702667  .00008367  00000-0  54314-3 0  9996,2 52116  53.2163 338.2674 0000952 108.7313 251.3782 15.08841742 66795,6917.875,95.437,540.399,539.081,0.0
52116.0,STARLINK-3735,PAYLOAD,2023-05-25 18:33:16,15.08850187,8.95e-05,53.2162,333.2124,100.4202,259.6891,0.0005402,8.322e-05,0.0,0 STARLINK-3735,1 52116U 22029AE  23145.77310501  .00008322  00000-0  54020-3 0  9998,2 52116  53.2162 333.2124 0000895 100.4202 259.6891 15.08850187 66965,6917.849,95.437,540.333,539.095,0.0
52116.0,STARLINK-3735,PAYLOAD,2023-05-25 20:08:39,15.08851088,8.43e-05,53.2163,332.9153,101.8937,258.215,0.00052629,8.101e-05,0.0,0 STARLINK-3735,1 52116U 22029AE  23145.83934419  .00008101  00000-0  52629-3 0  9993,2 52116  53.2163 332.9153 0000843 101.8937 258.2150 15.08851088 66972,6917.846,95.437,540.295,539.128,0.0
52116.0,STARLINK-3735,PAYLOAD,2023-05-26 12:02:31,15.08840159,0.0001234,53.2153,329.9432,76.4228,283.6901,9.4156e-05,1.211e-05,0.0,0 STARLINK-3735,1 52116U 22029AE  23146.50174835  .00001211  00000-0  94156-4 0  9993,2 52116  53.2153 329.9432 0001234  76.4228 283.6901 15.08840159 67077,6917.88,95.438,540.599,538.891,0.0
52116.0,STARLINK-3735,PAYLOAD,2023-05-26 18:24:03,15.08837146,9.26e-05,53.2163,328.752,95.8486,264.2612,5.0469e-05,5.16e-06,0.0,0 STARLINK-3735,1 52116U 22029AE  23146.76670993  .00000516  00000-0  50469-4 0  9993,2 52116  53.2163 328.7520 0000926  95.8486 264.2612 15.08837146 67112,6917.889,95.438,540.395,539.114,0.0
52116.0,STARLINK-3735,PAYLOAD,2023-05-27 18:14:50,15.08847326,9.27e-05,53.216,324.2915,90.1916,269.9182,0.00016356,2.317e-05,0.0,0 STARLINK-3735,1 52116U 22029AE  23147.76030633  .00002317  00000-0  16356-3 0  9992,2 52116  53.2160 324.2915 0000927  90.1916 269.9182 15.08847326 67266,6917.858,95.437,540.364,539.082,0.0
52116.0,STARLINK-3735,PAYLOAD,2023-05-28 05:22:32,15.08845278,9.25e-05,53.216,322.2092,93.3874,266.7224,0.00018993,2.737e-05,0.0,0 STARLINK-3735,1 52116U 22029AE  23148.22398705  .00002737  00000-0  18993-3 0  9996,2 52116  53.2160 322.2092 0000925  93.3874 266.7224 15.08845278 67330,6917.864,95.437,540.369,539.089,0.0
